NORAD_CAT_ID,OBJECT_NAME,OBJECT_TYPE,EPOCH,MEAN_MOTION,ECCENTRICITY,INCLINATION,RA_OF_ASC_NODE,ARG_OF_PERICENTER,MEAN_ANOMALY,BSTAR,MEAN_MOTION_DOT,MEAN_MOTION_DDOT,TLE_LINE0,TLE_LINE1,TLE_LINE2,SEMIMAJOR_AXIS,PERIOD,APOGEE,PERIGEE,DECAYED
55411.0,STARLINK-5605,PAYLOAD,2023-02-17 18:12:00,15.69834695,0.0003463,69.9984,41.707,265.8114,94.2686,-0.00010238,-0.00012459,0.0,0 STARLINK-5605,1 55411U 23014W   23048.75834477 -.00012459  00000-0 -10238-3 0  9998,2 55411  69.9984  41.7070 0003463 265.8114  94.2686 15.69834695  2884,6737.507,91.729,361.705,357.039,0.0
55411.0,STARLINK-5605,PAYLOAD,2023-02-17 21:15:32,15.6981966,0.0003504,69.9983,41.3482,268.1581,91.9214,-0.00012172,-0.0001476,0.0,0 STARLINK-5605,1 55411U 23014W   23048.88579180 -.00014760  00000-0 -12172-3 0  9995,2 55411  69.9983  41.3482 0003504 268.1581  91.9214 15.69819660  3849,6737.55,91.73,361.776,357.054,0.0
55411.0,STARLINK-5605,PAYLOAD,2023-02-17 22:47:17,15.69822389,0.0003477,69.9985,41.17,266.0395,94.0403,-0.00010426,-0.00012678,0.0,0 STARLINK-5605,1 55411U 23014W   23048.94951174 -.00012678  00000-0 -10426-3 0  9995,2 55411  69.9985  41.1700 0003477 266.0395  94.0403 15.69822389  2914,6737.542,91.73,361.75,357.065,0.0
55411.0,STARLINK-5605,PAYLOAD,2023-02-18 06:25:57,15.70003667,0.0003661,69.9979,40.2732,268.0911,91.9866,0.00025947,0.00031207,0.0,0 STARLINK-5605,1 55411U 23014W   23049.26803006  .00031207  00000-0  25947-3 0  9992,2 55411  69.9979  40.2732 0003661 268.0911  91.9866 15.70003667  2969,6737.024,91.72,361.355,356.422,0.0
55411.0,STARLINK-5605,PAYLOAD,2023-02-19 02:18:42,15.69923324,0.0003259,69.9977,37.9434,263.8284,96.2541,2.2332e-06,5.6e-07,0.0,0 STARLINK-5605,1 55411U 23014W   23050.09632273  .00000056  00000-0  22332-5 0  9996,2 55411  69.9977  37.9434 0003259 263.8284  96.2541 15.69923324  3090,6737.253,91.724,361.314,356.923,0.0
55411.0,STARLINK-5605,PAYLOAD,2023-02-19 05:22:11,15.69939969,0.0003431,69.9978,37.5847,269.2088,90.8715,2.2444e-05,2.488e-05,0.0,0 STARLINK-5605,1 55411U 23014W   23050.22374795  .00002488  00000-0  22444-4 0  9997,2 55411  69.9978  37.5847 0003431 269.2088  90.8715 15.69939969  3117,6737.206,91.723,361.382,356.759,0.0
55411.0,STARLINK-5605,PAYLOAD,2023-02-21 01:43:00,15.69931892,0.0003444,69.9983,32.3889,265.8955,94.1847,2.7925e-05,3.147e-05,0.0,0 STARLINK-5605,1 55411U 23014W   23052.07153687  .00003147  00000-0  27925-4 0  9999,2 55411  69.9983  32.3889 0003444 265.8955  94.1847 15.69931892  3403,6737.229,91.724,361.414,356.774,0.0
55411.0,STARLINK-5605,PAYLOAD,2023-02-21 13:57:02,15.69909949,0.0003326,69.9989,30.9551,268.8757,91.2058,-6.1177e-05,-7.558e-05,0.0,0 STARLINK-5605,1 55411U 23014W   23052.58127437 -.00007558  00000-0 -61177-4 0  9998,2 55411  69.9989  30.9551 0003326 268.8757  91.2058 15.69909949  4424,6737.292,91.725,361.397,356.916,0.0
55411.0,STARLINK-5605,PAYLOAD,2023-02-21 18:32:17,15.69915323,0.0003445,69.999,30.4177,268.9434,91.1367,-1.5122e-05,-2.03e-05,0.0,0 STARLINK-5605,1 55411U 23014W   23052.77242503 -.00002030  00000-0 -15122-4 0  9990,2 55411  69.9990  30.4177 0003445 268.9434  91.1367 15.69915323  3514,6737.276,91.725,361.462,356.82,0.0
55411.0,STARLINK-5605,PAYLOAD,2023-02-21 21:35:47,15.69921821,0.0003403,69.999,30.0594,268.7857,91.2949,2.2801e-05,2.529e-05,0.0,0 STARLINK-5605,1 55411U 23014W   23052.89985811  .00002529  00000-0  22801-4 0  9992,2 55411  69.9990  30.0594 0003403 268.7857  91.2949 15.69921821  4477,6737.258,91.724,361.415,356.83,0.0
55411.0,STARLINK-5605,PAYLOAD,2023-02-22 02:11:02,15.69971958,0.0003335,69.9991,29.5218,270.937,89.1443,0.00046342,0.00055993,0.0,0 STARLINK-5605,1 55411U 23014W   23053.09100133  .00055993  00000-0  46342-3 0  9999,2 55411  69.9991  29.5218 0003335 270.9370  89.1443 15.69971958  3563,6737.114,91.721,361.226,356.732,0.0
55411.0,STARLINK-5605,PAYLOAD,2023-02-22 11:21:33,15.69947214,0.0003211,69.9992,28.4468,278.1736,81.9095,0.00025451,0.0003053,0.0,0 STARLINK-5605,1 55411U 23014W   23053.47330520  .00030530  00000-0  25451-3 0  9994,2 55411  69.9992  28.4468 0003211 278.1736  81.9095 15.69947214  3626,6737.185,91.723,361.213,356.887,0.0
55411.0,STARLINK-5605,PAYLOAD,2023-02-22 14:25:03,15.69958975,0.0003149,69.9992,28.0884,280.6956,79.3885,0.00069033,0.00083744,0.0,0 STARLINK-5605,1 55411U 23014W   23053.60073731  .00083744  00000-0  69033-3 0  9996,2 55411  69.9992  28.0884 0003149 280.6956  79.3885 15.69958975  4586,6737.151,91.722,361.138,356.895,0.0
55411.0,STARLINK-5605,PAYLOAD,2023-02-22 17:28:33,15.69978476,0.0003145,69.9992,27.7301,279.9282,80.1558,0.00072684,0.00088304,0.0,0 STARLINK-5605,1 55411U 23014W   23053.72816680  .00088304  00000-0  72684-3 0  9990,2 55411  69.9992  27.7301 0003145 279.9282  80.1558 15.69978476  3668,6737.096,91.721,361.079,356.842,0.0
55411.0,STARLINK-5605,PAYLOAD,2023-02-22 20:32:03,15.69972394,0.0003318,69.9993,27.3716,285.5479,74.535,0.00055284,0.00066927,0.0,0 STARLINK-5605,1 55411U 23014W   23053.85559854  .00066927  00000-0  55284-3 0  9995,2 55411  69.9993  27.3716 0003318 285.5479  74.5350 15.69972394  4625,6737.113,91.721,361.213,356.743,0.0
55411.0,STARLINK-5605,PAYLOAD,2023-02-23 04:10:49,15.69931636,0.0003405,69.9995,26.4758,272.2091,87.8715,0.00012112,0.0001438,0.0,0 STARLINK-5605,1 55411U 23014W   23054.17417860  .00014380  00000-0  12112-3 0  9990,2 55411  69.9995  26.4758 0003405 272.2091  87.8715 15.69931636  3730,6737.23,91.724,361.389,356.801,0.0
55411.0,STARLINK-5605,PAYLOAD,2023-02-23 13:21:20,15.69901231,0.0003321,69.9995,25.4011,275.2283,84.8534,0.00047756,0.0005755,0.0,0 STARLINK-5605,1 55411U 23014W   23054.55648658  .00057550  00000-0  47756-3 0  9991,2 55411  69.9995  25.4011 0003321 275.2283  84.8534 15.69901231  4739,6737.317,91.726,361.419,356.944,0.0
55411.0,STARLINK-5605,PAYLOAD,2023-02-23 21:00:06,15.69917583,0.0003376,69.9995,24.5055,250.5998,109.4833,0.00042608,0.0005132,0.0,0 STARLINK-5605,1 55411U 23014W   23054.87507204  .00051320  00000-0  42608-3 0  9997,2 55411  69.9995  24.5055 0003376 250.5998 109.4833 15.69917583  3840,6737.27,91.725,361.409,356.86,0.0
55411.0,STARLINK-5605,PAYLOAD,2023-02-24 12:17:38,15.69914055,0.0002916,69.9994,22.7142,290.2276,69.8606,0.00038677,0.00046529,0.0,0 STARLINK-5605,1 55411U 23014W   23055.51224973  .00046529  00000-0  38677-3 0  9994,2 55411  69.9994  22.7142 0002916 290.2276  69.8606 15.69914055  3944,6737.28,91.725,361.109,357.18,0.0
55411.0,STARLINK-5605,PAYLOAD,2023-02-24 13:49:23,15.6991957,0.0003103,69.9993,22.5351,269.8964,90.1877,0.00040407,0.00048644,0.0,0 STARLINK-5605,1 55411U 23014W   23055.57596394  .00048644  00000-0  40407-3 0  9993,2 55411  69.9993  22.5351 0003103 269.8964  90.1877 15.69919570  4897,6737.264,91.724,361.22,357.039,0.0
55411.0,STARLINK-5605,PAYLOAD,2023-02-24 18:24:38,15.69932854,0.0003326,69.9992,21.9975,262.4273,97.6545,0.00064244,0.00077782,0.0,0 STARLINK-5605,1 55411U 23014W   23055.76711279  .00077782  00000-0  64244-3 0  9995,2 55411  69.9992  21.9975 0003326 262.4273  97.6545 15.69932854  3983,6737.226,91.724,361.332,356.85,0.0
55411.0,STARLINK-5605,PAYLOAD,2023-02-24 21:28:09,15.69920272,0.0003426,69.9992,21.6392,261.8548,98.226,0.0005252,0.00063407,0.0,0 STARLINK-5605,1 55411U 23014W   23055.89454892  .00063407  00000-0  52520-3 0  9997,2 55411  69.9992  21.6392 0003426 261.8548  98.2260 15.69920272  4941,6737.262,91.724,361.435,356.819,0.0
55411.0,STARLINK-5605,PAYLOAD,2023-02-25 02:03:24,15.69933402,0.0003338,69.9994,21.1021,260.6674,99.4144,0.00020657,0.00024708,0.0,0 STARLINK-5605,1 55411U 23014W   23056.08569741  .00024708  00000-0  20657-3 0  9996,2 55411  69.9994  21.1021 0003338 260.6674  99.4144 15.69933402  4039,6737.225,91.724,361.338,356.841,0.0
55411.0,STARLINK-5605,PAYLOAD,2023-02-25 14:17:25,15.69940666,0.0003424,69.9992,19.669,262.0585,98.0222,0.0003558,0.00042818,0.0,0 STARLINK-5605,1 55411U 23014W   23056.59542861  .00042818  00000-0  35580-3 0  9999,2 55411  69.9992  19.6690 0003424 262.0585  98.0222 15.69940666  5059,6737.204,91.723,361.376,356.762,0.0
55411.0,STARLINK-5605,PAYLOAD,2023-02-25 20:24:25,15.69928048,0.0003457,69.9992,18.952,268.6489,91.4311,0.00036294,0.00043663,0.0,0 STARLINK-5605,1 55411U 23014W   23056.85029625  .00043663  00000-0  36294-3 0  9998,2 55411  69.9992  18.9520 0003457 268.6489  91.4311 15.69928048  5094,6737.24,91.724,361.434,356.776,0.0
55411.0,STARLINK-5605,PAYLOAD,2023-02-26 04:03:10,15.69969522,0.0003374,69.9992,18.0563,266.5702,93.5108,0.00068638,0.00083299,0.0,0 STARLINK-5605,1 55411U 23014W   23057.16887433  .00083299  00000-0  68638-3 0  9998,2 55411  69.9992  18.0563 0003374 266.5702  93.5108 15.69969522  4206,6737.121,91.722,361.259,356.713,0.0
55411.0,STARLINK-5605,PAYLOAD,2023-02-26 10:10:11,15.69952521,0.0003373,69.9991,17.3399,269.5834,90.4975,0.00020531,0.00024575,0.0,0 STARLINK-5605,1 55411U 23014W   23057.42373989  .00024575  00000-0  20531-3 0  9995,2 55411  69.9991  17.3399 0003373 269.5834  90.4975 15.69952521  4245,6737.17,91.723,361.307,356.762,0.0
55411.0,STARLINK-5605,PAYLOAD,2023-02-26 13:13:41,15.69923438,0.0003426,69.999,16.9816,266.2335,93.8469,2.6683e-05,2.997e-05,0.0,0 STARLINK-5605,1 55411U 23014W   23057.55117781  .00002997  00000-0  26683-4 0  9994,2 55411  69.9990  16.9816 0003426 266.2335  93.8469 15.69923438  5209,6737.253,91.724,361.426,356.81,0.0
55411.0,STARLINK-5605,PAYLOAD,2023-02-26 19:20:42,15.69918315,0.000342,69.9989,16.2645,265.9761,94.1044,0.00066187,0.00080117,0.0,0 STARLINK-5605,1 55411U 23014W   23057.80604831  .00080117  00000-0  66187-3 0  9991,2 55411  69.9989  16.2645 0003420 265.9761  94.1044 15.69918315  4304,6737.268,91.725,361.437,356.829,0.0
55411.0,STARLINK-5605,PAYLOAD,2023-02-26 20:52:27,15.69917294,0.0003432,69.9988,16.0855,266.7895,93.2908,0.00054899,0.00066304,0.0,0 STARLINK-5605,1 55411U 23014W   23057.86976555  .00066304  00000-0  54899-3 0  9991,2 55411  69.9988  16.0855 0003432 266.7895  93.2908 15.69917294  5253,6737.271,91.725,361.448,356.823,0.0
